<?xml version="1.0" encoding="UTF-8"?>
<kml xmlns="http://www.opengis.net/kml/2.2" xmlns:gx="http://www.google.com/kml/ext/2.2">
<Document>
<name>
<![CDATA[
Askins
]]>
</name>
<visibility>1</visibility>
<Style id="lineStyle">
<LineStyle>
<color>fff08c14</color>
<width>2</width>
</LineStyle>
</Style>
<Folder>
<name>
<![CDATA[
Tracks
]]>
</name>
<visibility>1</visibility>
<Placemark id="225719">
<name>
<![CDATA[
Askins
]]>
</name>
<visibility>1</visibility>
<styleUrl>#lineStyle</styleUrl>
<ExtendedData>
<Data name="trailid"><value>225719</value></Data>
<Data name="url"><value>https://www.trailforks.com/trails/askins/</value></Data>
<Data name="closed"><value>0</value></Data>
<Data name="archived"><value>0</value></Data>
<Data name="planned"><value>0</value></Data>
<Data name="difficulty"><value>Blue</value></Data>
<Data name="difficulty_id"><value>4</value></Data>
<Data name="direction"><value>Downhill Only</value></Data>
<Data name="direction_id"><value>1</value></Data>
<Data name="activitytype"><value>Mountain Bike</value></Data>
<Data name="activitytype_id"><value>1</value></Data>
<Data name="activitytypes_ids"><value>1, 2</value></Data>
<Data name="trailtype"><value>Machine Groomed</value></Data>
<Data name="trailtype_id"><value>2</value></Data>
<Data name="usage"><value>Multi-use</value></Data>
<Data name="usage_id"><value>3</value></Data>
<Data name="physical_rating"><value>Moderate</value></Data>
<Data name="physical_rating_id"><value>2</value></Data>
<Data name="biketype"><value>DH, AM</value></Data>
<Data name="ebike"><value>yes</value></Data>
<Data name="global_rank"><value>693</value></Data>
<Data name="popularity_score"><value>95</value></Data>
<Data name="distance"><value>2116</value></Data>
<Data name="alt_climb"><value>9</value></Data>
<Data name="alt_descent"><value>-192</value></Data>
<Data name="avg_time"><value>348</value></Data>
</ExtendedData>
<LineString>
<extrude>1</extrude>
<tessellate>1</tessellate>
<coordinates>
172.64053,-43.59534,239 172.64054,-43.59492,236 172.64046,-43.5947,236 172.64032,-43.59445,228 172.64015,-43.59427,230 172.63971,-43.59409,222 172.63923,-43.59394,220 172.63854,-43.59367,218 172.63825,-43.59363,217 172.63773,-43.59352,214 172.6372,-43.59337,206 172.63678,-43.59347,201 172.63668,-43.59356,201 172.63666,-43.59365,201 172.63675,-43.59373,201 172.6368,-43.59384,189 172.63673,-43.5939,189 172.63663,-43.59389,189 172.63656,-43.59385,189 172.63642,-43.59372,195 172.63634,-43.59358,195 172.63621,-43.59343,190 172.63601,-43.59335,190 172.63596,-43.59335,182 172.6359,-43.59339,182 172.63591,-43.59346,182 172.63601,-43.5936,187 172.636,-43.59362,187 172.63595,-43.59361,179 172.63587,-43.59351,179 172.63581,-43.59347,182 172.63576,-43.59347,182 172.63573,-43.5935,179 172.63576,-43.5936,179 172.63574,-43.59362,179 172.6357,-43.59361,179 172.63567,-43.59358,170 172.63552,-43.59338,173 172.63548,-43.59335,173 172.63543,-43.59334,173 172.63539,-43.59336,163 172.63536,-43.5934,163 172.63539,-43.59348,162 172.63554,-43.59367,170 172.63552,-43.59379,162 172.63544,-43.59379,162 172.63533,-43.59366,162 172.63514,-43.59351,162 172.63509,-43.59333,155 172.63511,-43.59316,158 172.63516,-43.59302,165 172.63531,-43.5929,155 172.63557,-43.59276,156 172.63586,-43.59269,160 172.63618,-43.59259,140 172.63633,-43.59252,147 172.63635,-43.59246,147 172.63632,-43.59242,147 172.63625,-43.59241,140 172.63597,-43.59248,137 172.63566,-43.59258,134 172.63537,-43.59262,135 172.63497,-43.59274,154 172.63484,-43.59281,145 172.63473,-43.59282,145 172.63458,-43.59286,134 172.6344,-43.59299,134 172.63437,-43.59306,134 172.63442,-43.59328,130 172.63437,-43.59333,130 172.63429,-43.59332,117 172.63423,-43.59324,117 172.63423,-43.59312,120 172.63416,-43.59296,120 172.63407,-43.59292,120 172.63402,-43.59294,109 172.63398,-43.59303,109 172.63404,-43.59318,120 172.63406,-43.59331,117 172.63402,-43.59336,108 172.63396,-43.59336,108 172.63365,-43.59287,101 172.63364,-43.59279,101 172.63368,-43.59271,101 172.63392,-43.59254,105 172.63419,-43.5924,116 172.63452,-43.59224,112 172.63474,-43.59218,114 172.63475,-43.59211,114 172.63472,-43.59208,103 172.63451,-43.59208,100 172.63426,-43.59214,105 172.63324,-43.59252,88 172.6332,-43.59251,88 172.63316,-43.59245,81 172.63318,-43.59239,81 172.63329,-43.59236,87 172.63429,-43.59188,95 172.6343,-43.59182,95 172.63424,-43.59178,86 172.63329,-43.59198,84 172.63291,-43.59212,72 172.63272,-43.59224,72 172.63264,-43.59237,73 172.63261,-43.59255,65 172.6326,-43.59311,60 172.63267,-43.59335,63 172.63271,-43.5936,59 172.63266,-43.59365,59 172.63257,-43.59361,53 172.63238,-43.59332,56 172.6322,-43.59323,47 </coordinates>
</LineString>
</Placemark>
</Folder>
</Document>
</kml>
